STARLINK-1113           
1 44926C 20001N   22345.91506944 -.00026393  00000-0 -18074-2 0  3454
2 44926  52.9991 260.8099 0001466  70.6149 331.2022 15.05613456    10
STARLINK-1114           
1 44927C 20001P   22345.90326389 -.00003119  00000-0 -20900-3 0  3450
2 44927  53.0536 260.8385 0001729  68.0785  54.1111 15.06400093    17
STARLINK-1119           
1 44928C 20001Q   22345.90326389 -.00025426  00000-0 -17036-2 0  3451
2 44928  53.0546 260.8486 0001689  57.4642  84.7006 15.06424301    10
STARLINK-1121           
1 44929C 20001R   22345.91715278  .00001758  00000-0  11780-3 0  3453
2 44929  53.0549 260.7861 0001550  70.7897 226.8218 15.06391409    13
STARLINK-1123           
1 44930C 20001S   22345.91854167 -.00001137  00000-0 -76194-4 0  3450
2 44930  53.0529 260.7903 0001569  63.0707  61.9917 15.06400488    17
STARLINK-1128           
1 44931C 20001T   22345.92062500 -.00009883  00000-0 -58149-3 0  3459
2 44931  53.0527 250.0186 0001289  78.8413 330.4116 15.11156148    10
STARLINK-1130 (DARKSAT) 
1 44932C 20001U   22345.90673611 -.00008183  00000-0 -54819-3 0  3451
2 44932  53.0534 260.8336 0001501  65.3528  55.6166 15.06413714    10
STARLINK-1144           
1 44933C 20001V   22345.91784722 -.00008489  00000-0 -56871-3 0  3458
2 44933  53.0528 260.7848 0001881  52.5541 348.7622 15.06411211    18
STARLINK-1071           
1 44934C 20001W   22345.91159722 -.00006849  00000-0 -45889-3 0  3450
2 44934  53.0529 240.8184 0001493  79.3674 217.9889 15.06403723    16
STARLINK-1079           
1 44937C 20001Z   22345.91923611 -.00010687  00000-0 -71601-3 0  3455
2 44937  53.0518 240.7849 0001497  80.3251  18.4944 15.06412715    18
STARLINK-1082           
1 44938C 20001AA  22345.91159722 -.00019539  00000-0 -13092-2 0  3454
2 44938  53.0526 240.8104 0001599  69.8081 167.5192 15.06415462    12
STARLINK-1083           
1 44939C 20001AB  22345.90534722  .00011456  00000-0  76769-3 0  3450
2 44939  53.0540 240.8439 0001481  71.1650  92.3200 15.06382143    12
STARLINK-1091           
1 44940C 20001AC  22345.91645833 -.00001414  00000-0 -94723-4 0  3455
2 44940  53.0525 240.7897 0001771  56.7611 106.9854 15.06400830    13
STARLINK-1094           
1 44941C 20001AD  22345.91854167 -.00003982  00000-0 -26676-3 0  3451
2 44941  53.0522 240.7835 0001613  71.8013 343.2284 15.06405187    15
STARLINK-1096           
1 44942C 20001AE  22345.91993056  .00019341  00000-0  10850-2 0  3453
2 44942  53.0530 236.5347 0003733  97.5754  80.6930 15.12836590    11
STARLINK-1100           
1 44943C 20001AF  22345.90187500 -.00002186  00000-0 -14647-3 0  3452
2 44943  53.0525 240.8636 0001616  62.1024 102.5213 15.06397610    17
STARLINK-1108           
1 44944C 20001AG  22345.92479167 -.00011910  00000-0 -79798-3 0  3451
2 44944  53.0526 240.7532 0001559  68.9213 320.0864 15.06411534    14
STARLINK-1109           
1 44945C 20001AH  22345.91298611 -.00006323  00000-0 -42364-3 0  3455
2 44945  53.0540 240.8077 0001491  74.7883  90.1077 15.06404366    15
STARLINK-1110           
1 44946C 20001AJ  22345.92479167  .00022974  00000-0  99948-3 0  3452
2 44946  53.0117 214.3551 0004928 112.4859 206.8490 15.21691697    17
STARLINK-1116           
1 44947C 20001AK  22345.91437500 -.00018564  00000-0 -12442-2 0  3452
2 44947  53.0535 240.7997 0001631  46.7989   5.6978 15.06405164    11
STARLINK-1122           
1 44949C 20001AM  22345.91923611 -.00011137  00000-0 -74608-3 0  3459
2 44949  53.0538 240.7771 0001817  60.7682 238.0603 15.06414336    16
STARLINK-1126           
1 44951C 20001AP  22345.92409722  .00023715  00000-0  10393-2 0  3458
2 44951  53.0096 215.5429 0005173 105.3432 225.2096 15.21438293    15
STARLINK-1117           
1 44952C 20001AQ  22345.92270833 -.00005763  00000-0 -38618-3 0  3454
2 44952  53.0516 240.7660 0001427  63.5199 354.1672 15.06400443    14
STARLINK-1124           
1 44953C 20001AR  22345.91923611  .00007611  00000-0  51000-3 0  3455
2 44953  53.0537 240.7845 0001662  63.2884 240.6954 15.06388773    15
STARLINK-1066           
1 44954C 20001AS  22345.89909722 -.00013725  00000-0 -91952-3 0  3455
2 44954  53.0511 220.8770 0001456  80.7792  38.7613 15.06416241    17
STARLINK-1069           
1 44955C 20001AT  22345.90673611  .00004120  00000-0  27604-3 0  3453
2 44955  53.0525 220.8237 0001701  57.5300  63.4606 15.06392816    19
STARLINK-1070           
1 44956C 20001AU  22345.90118056 -.00010063  00000-0 -67424-3 0  3450
2 44956  53.0524 220.8326 0001508  65.1498  50.8280 15.06407763    12
STARLINK-1074           
1 44957C 20001AV  22345.91854167 -.00013266  00000-0 -88880-3 0  3459
2 44957  53.0519 220.7562 0001496  74.1474 356.0308 15.06412646    16
STARLINK-1076           
1 44959C 20001AX  22345.91159722 -.00009923  00000-0 -66505-3 0  3451
2 44959  53.0525 220.8036 0001631  64.9525 242.4714 15.06398421    10
STARLINK-1080           
1 44961C 20001AZ  22345.91923611 -.00013001  00000-0 -87083-3 0  3456
2 44961  53.0525 220.7818 0001599  79.1169 229.6251 15.06423384    15
STARLINK-1086           
1 44964C 20001BC  22345.91368056  .00010812  00000-0  72467-3 0  3450
2 44964  53.0531 220.7938 0001550  67.2351  51.4945 15.06374755    14
STARLINK-1088           
1 44966C 20001BE  22345.90395833  .00001154  00000-0  77328-4 0  3455
2 44966  53.0519 220.8532 0001532  62.8825 243.0720 15.06392640    13
STARLINK-1089           
1 44967C 20001BF  22345.91159722  .00010760  00000-0  72083-3 0  3457
2 44967  53.0525 220.8011 0001931  54.4859 172.8759 15.06393485    19
STARLINK-1090           
1 44968C 20001BG  22345.92340278 -.00011722  00000-0 -78514-3 0  3453
2 44968  53.0525 220.7559 0001803  64.2382 247.1076 15.06422476    15
STARLINK-1092           
1 44969C 20001BH  22345.91576389  .00012753  00000-0  85440-3 0  3456
2 44969  53.0519 220.7955 0001842  53.5314 256.4560 15.06387534    14
STARLINK-1093           
1 44970C 20001BJ  22345.91576389  .00009616  00000-0  64423-3 0  3450
2 44970  53.0525 220.7836 0001434  88.5038 341.4730 15.06393852    13
STARLINK-1107           
1 44972C 20001BL  22345.91437500 -.00012949  00000-0 -86753-3 0  3458
2 44972  53.0521 220.7994 0001403  73.7502 148.6912 15.06413316    11
STARLINK-1115           
1 44973C 20001BM  22345.90812500  .00009700  00000-0  64979-3 0  3450
2 44973  53.0522 220.8228 0001743  70.6818 237.8342 15.06394895    15
STARLINK-1132           
1 45044C 20006A   22345.92340278  .00009152  00000-0  61335-3 0  3459
2 45044  53.0520 180.7482 0001738  66.7156 104.7472 15.06379917    18
STARLINK-1120           
1 45045C 20006B   22345.89284722 -.00014940  00000-0 -10008-2 0  3450
2 45045  53.0529 200.8834 0001824  63.3445  17.3851 15.06420475    19
STARLINK-1131           
1 45047C 20006D   22345.89770833  .00010146  00000-0  67978-3 0  3456
2 45047  53.0513 200.8755 0001603  78.4588   3.5584 15.06388986    16
STARLINK-1134           
1 45048C 20006E   22345.90534722  .00009377  00000-0  62813-3 0  3451
2 45048  53.0529 200.8260 0001293  89.5663 353.8220 15.06397650    13
STARLINK-1135           
1 45049C 20006F   22345.88868056  .00011300  00000-0  60342-3 0  3453
2 45049  53.0547 193.0289 0004315 134.6204 335.1193 15.14595305    17
STARLINK-1140           
1 45050C 20006G   22345.91645833 -.00004386  00000-0 -29373-3 0  3452
2 45050  53.0543 200.7839 0001456  76.3285   7.3390 15.06422987    19
STARLINK-1148           
1 45052C 20006J   22345.92409722  .00007565  00000-0  50680-3 0  3455
2 45052  53.0522 200.7426 0001493  76.2456   8.9824 15.06395445    17
STARLINK-1155           
1 45053C 20006K   22345.91854167  .00013204  00000-0  60419-3 0  3450
2 45053  53.0030 179.7132 0003625 128.9069  24.1855 15.19979842    12
STARLINK-1156           
1 45054C 20006L   22345.92062500  .00009672  00000-0  64807-3 0  3453
2 45054  53.0522 200.7697 0001554  65.4024  20.9612 15.06385826    19
STARLINK-1159           
1 45057C 20006P   22345.91020833 -.00002093  00000-0 -14022-3 0  3454
2 45057  53.0506 200.8205 0001584  60.5461 249.2948 15.06404487    17
STARLINK-1162           
1 45058C 20006Q   22345.90881944  .00008266  00000-0  55372-3 0  3451
2 45058  53.0517 200.8303 0001582  63.4838 278.7617 15.06396862    14
STARLINK-1165           
1 45059C 20006R   22345.88173611 -.00016974  00000-0 -11369-2 0  3458
2 45059  53.0513 200.9470 0001696  70.7389   4.5524 15.06425693    12
STARLINK-1166           
1 45060C 20006S   22345.92201389  .00009896  00000-0  66305-3 0  3453
2 45060  53.0523 200.7671 0001561  62.1560 251.7180 15.06389789    12
STARLINK-1169           
1 45061C 20006T   22345.88590278  .00001795  00000-0  12034-3 0  3457
2 45061  53.0515 200.9102 0001646  66.9170  11.1099 15.06382446    18
STARLINK-1171           
1 45062C 20006U   22345.91437500 -.00016803  00000-0 -11258-2 0  3454
2 45062  53.0527 200.8056 0001656  58.2348 254.2046 15.06415667    15
STARLINK-1133           
1 45064C 20006W   22345.89701389  .00007522  00000-0  50385-3 0  3453
2 45064  53.0506 180.8797 0001490  67.2775  80.9272 15.06400146    14
STARLINK-1139           
1 45065C 20006X   22345.90048611  .00007321  00000-0  49036-3 0  3456
2 45065  53.0527 180.8704 0001758  62.3218  84.6480 15.06403053    13
STARLINK-1145           
1 45066C 20006Y   22345.91784722  .00005944  00000-0  39834-3 0  3452
2 45066  53.0535 180.7768 0001768  53.2289 328.0691 15.06384574    15
STARLINK-1150           
1 45067C 20006Z   22345.88659722  .00005963  00000-0  39968-3 0  3459
2 45067  53.0507 180.9257 0001562  57.6884  74.0739 15.06376559    16
STARLINK-1161           
1 45068C 20006AA  22345.91993056  .00006584  00000-0  44114-3 0  3454
2 45068  53.0515 180.6421 0001579  72.3508  25.4778 15.06389860    13
STARLINK-1167           
1 45071C 20006AD  22345.92409722  .00008189  00000-0  54872-3 0  3456
2 45071  53.0521 180.7453 0001783  63.2317  91.8701 15.06385452    10
